HIMAWARI-8              
1 40267U 14060A   24014.90262453 -.00000271  00000+0  00000+0 0  9991
2 40267   0.0067 159.0415 0000898 127.6158 292.7914  1.00271633 33894
